ONEWEB-0340             
1 49206U 21083W   24175.87941249  .00000055  00000+0  10676-3 0  9990
2 49206  87.9149 119.4408 0001975  84.0380 276.0977 13.18685390134643
ONEWEB-0341             
1 49207U 21083X   24175.88731987 -.00000009  00000+0 -55073-4 0  9990
2 49207  87.9149 119.4528 0001736  60.1712 299.9592 13.18685267134668
ONEWEB-0342             
1 49208U 21083Y   24175.72200541  .00000043  00000+0  74132-4 0  9994
2 49208  87.9201  58.4136 0002040  76.7726 283.3635 13.20773071141287
ONEWEB-0343             
1 49209U 21083Z   24175.88256817  .00000032  00000+0  48016-4 0  9999
2 49209  87.9142 119.4606 0001949  62.6493 297.4837 13.18686137134717
ONEWEB-0344             
1 49210U 21083AA  24175.86279294  .00000385  00000+0  10194-2 0  9998
2 49210  87.8937 104.2274 0001557  73.2478 286.8821 13.13471331135943
ONEWEB-0345             
1 49211U 21083AB  24175.88025016  .00000283  00000+0  73940-3 0  9998
2 49211  87.8934 104.1991 0001485  74.0800 286.0493 13.13470657135952
ONEWEB-0346             
1 49212U 21083AC  24175.89205717 -.00000015  00000+0 -70363-4 0  9990
2 49212  87.9149 119.4609 0001823  90.9522 269.1819 13.18684531134654
